[
    {
        "Altitude(m)": 611965.1856396886,
        "Argument of Periapsis(deg)": 0.0,
        "Eccentricity": 0.0,
        "Inclination(deg)": 60.0,
        "Latitude(deg)": 59.140162424328366,
        "Longitude(deg)": -21.03035221213457,
        "Mean Anomaly(deg)": 81.8182,
        "RAAN(deg)": 5.0,
        "Satellite Name": "Test1 27",
        "Satellite Number": 27,
        "Semi-Major Axis(m)": 6980739.136638005,
        "Time(s)": 0
    },
    {
        "Altitude(m)": 611995.8118075144,
        "Argument of Periapsis(deg)": 0.00010418945913296404,
        "Eccentricity": 0.0,
        "Inclination(deg)": 60.0,
        "Latitude(deg)": 59.28326442683715,
        "Longitude(deg)": -19.89699094012927,
        "Mean Anomaly(deg)": 82.43830614546184,
        "RAAN(deg)": 4.999579950860257,
        "Satellite Name": "Test1 27",
        "Satellite Number": 27,
        "Semi-Major Axis(m)": 6980739.136638005,
        "Time(s)": 10
    },
    {
        "Altitude(m)": 612024.0970940738,
        "Argument of Periapsis(deg)": 0.0002083789182659281,
        "Eccentricity": 0.0,
        "Inclination(deg)": 60.0,
        "Latitude(deg)": 59.41568439698588,
        "Longitude(deg)": -18.754106017883903,
        "Mean Anomaly(deg)": 83.05841229092367,
        "RAAN(deg)": 4.999159901720515,
        "Satellite Name": "Test1 27",
        "Satellite Number": 27,
        "Semi-Major Axis(m)": 6980739.136638005,
        "Time(s)": 20
    },
    {
        "Altitude(m)": 612050.0252802059,
        "Argument of Periapsis(deg)": 0.00031256837739889213,
        "Eccentricity": 0.0,
        "Inclination(deg)": 60.0,
        "Latitude(deg)": 59.53728290822947,
        "Longitude(deg)": -17.60232544660811,
        "Mean Anomaly(deg)": 83.6785184363855,
        "RAAN(deg)": 4.998739852580773,
        "Satellite Name": "Test1 27",
        "Satellite Number": 27,
        "Semi-Major Axis(m)": 6980739.136638005,
        "Time(s)": 30
    },
    {
        "Altitude(m)": 612073.5815070049,
        "Argument of Periapsis(deg)": 0.0004167578365318562,
        "Eccentricity": 0.0,
        "Inclination(deg)": 60.0,
        "Latitude(deg)": 59.64792979020215,
        "Longitude(deg)": -16.442312843401417,
        "Mean Anomaly(deg)": 84.29862458184732,
        "RAAN(deg)": 4.99831980344103,
        "Satellite Name": "Test1 27",
        "Satellite Number": 27,
        "Semi-Major Axis(m)": 6980739.136638005,
        "Time(s)": 40
    },
    {
        "Altitude(m)": 612094.7522828154,
        "Argument of Periapsis(deg)": 0.0005209472956648203,
        "Eccentricity": 0.0,
        "Inclination(deg)": 60.0,
        "Latitude(deg)": 59.74750478186405,
        "Longitude(deg)": -15.274766582369008,
        "Mean Anomaly(deg)": 84.91873072730917,
        "RAAN(deg)": 4.997899754301287,
        "Satellite Name": "Test1 27",
        "Satellite Number": 27,
        "Semi-Major Axis(m)": 6980739.136638005,
        "Time(s)": 50
    },
    {
        "Altitude(m)": 612113.5254895961,
        "Argument of Periapsis(deg)": 0.0006251367547977843,
        "Eccentricity": 0.0,
        "Inclination(deg)": 60.0,
        "Latitude(deg)": 59.8358981510875,
        "Longitude(deg)": -14.10041708994076,
        "Mean Anomaly(deg)": 85.53883687277099,
        "RAAN(deg)": 4.9974797051615445,
        "Satellite Name": "Test1 27",
        "Satellite Number": 27,
        "Semi-Major Axis(m)": 6980739.136638005,
        "Time(s)": 60
    },
    {
        "Altitude(m)": 612129.8903886286,
        "Argument of Periapsis(deg)": 0.0007293262139307483,
        "Eccentricity": 0.0,
        "Inclination(deg)": 60.0,
        "Latitude(deg)": 59.913011273618096,
        "Longitude(deg)": -12.920023817817121,
        "Mean Anomaly(deg)": 86.15894301823282,
        "RAAN(deg)": 4.9970596560218015,
        "Satellite Name": "Test1 27",
        "Satellite Number": 27,
        "Semi-Major Axis(m)": 6980739.136638005,
        "Time(s)": 70
    },
    {
        "Altitude(m)": 612143.8376255722,
        "Argument of Periapsis(deg)": 0.0008335156730637124,
        "Eccentricity": 0.0,
        "Inclination(deg)": 60.0,
        "Latitude(deg)": 59.97875716458176,
        "Longitude(deg)": -11.734373422565605,
        "Mean Anomaly(deg)": 86.77904916369465,
        "RAAN(deg)": 4.996639606882058,
        "Satellite Name": "Test1 27",
        "Satellite Number": 27,
        "Semi-Major Axis(m)": 6980739.136638005,
        "Time(s)": 80
    },
    {
        "Altitude(m)": 612155.359234891,
        "Argument of Periapsis(deg)": 0.0009377051321966765,
        "Eccentricity": 0.0,
        "Inclination(deg)": 60.0,
        "Latitude(deg)": 60.03306095607815,
        "Longitude(deg)": -10.54427614794952,
        "Mean Anomaly(deg)": 87.39915530915648,
        "RAAN(deg)": 4.996219557742316,
        "Satellite Name": "Test1 27",
        "Satellite Number": 27,
        "Semi-Major Axis(m)": 6980739.136638005,
        "Time(s)": 90
    },
    {
        "Altitude(m)": 612164.4486435691,
        "Argument of Periapsis(deg)": 0.0010418945913296407,
        "Eccentricity": 0.0,
        "Inclination(deg)": 60.0,
        "Latitude(deg)": 60.075860314889525,
        "Longitude(deg)": -9.350561950157982,
        "Mean Anomaly(deg)": 88.0192614546183,
        "RAAN(deg)": 4.995799508602573,
        "Satellite Name": "Test1 27",
        "Satellite Number": 27,
        "Semi-Major Axis(m)": 6980739.136638005,
        "Time(s)": 100
    },
    {
        "Altitude(m)": 612171.1006742358,
        "Argument of Periapsis(deg)": 0.0011460840504626045,
        "Eccentricity": 0.0,
        "Inclination(deg)": 60.0,
        "Latitude(deg)": 60.10710579495976,
        "Longitude(deg)": -8.154077911215476,
        "Mean Anomaly(deg)": 88.63936760008013,
        "RAAN(deg)": 4.995379459462831,
        "Satellite Name": "Test1 27",
        "Satellite Number": 27,
        "Semi-Major Axis(m)": 6980739.136638005,
        "Time(s)": 110
    },
    {
        "Altitude(m)": 612175.3115475903,
        "Argument of Periapsis(deg)": 0.0012502735095955685,
        "Eccentricity": 0.0,
        "Inclination(deg)": 60.0,
        "Latitude(deg)": 60.12676112005425,
        "Longitude(deg)": -6.955683951812486,
        "Mean Anomaly(deg)": 89.25947374554197,
        "RAAN(deg)": 4.994959410323088,
        "Satellite Name": "Test1 27",
        "Satellite Number": 27,
        "Semi-Major Axis(m)": 6980739.136638005,
        "Time(s)": 120
    },
    {
        "Altitude(m)": 612177.0788841678,
        "Argument of Periapsis(deg)": 0.0013544629687285324,
        "Eccentricity": 0.0,
        "Inclination(deg)": 60.0,
        "Latitude(deg)": 60.13480339285635,
        "Longitude(deg)": -5.756248397327824,
        "Mean Anomaly(deg)": 89.8795798910038,
        "RAAN(deg)": 4.994539361183345,
        "Satellite Name": "Test1 27",
        "Satellite Number": 27,
        "Semi-Major Axis(m)": 6980739.136638005,
        "Time(s)": 130
    },
    {
        "Altitude(m)": 612176.4017054762,
        "Argument of Periapsis(deg)": 0.0014586524278614966,
        "Eccentricity": 0.0,
        "Inclination(deg)": 60.0,
        "Latitude(deg)": 60.13122322769715,
        "Longitude(deg)": -4.5566449539211415,
        "Mean Anomaly(deg)": 90.49968603646563,
        "RAAN(deg)": 4.994119312043602,
        "Satellite Name": "Test1 27",
        "Satellite Number": 27,
        "Semi-Major Axis(m)": 6980739.136638005,
        "Time(s)": 140
    },
    {
        "Altitude(m)": 612173.2804344412,
        "Argument of Periapsis(deg)": 0.0015628418869944607,
        "Eccentricity": 0.0,
        "Inclination(deg)": 60.0,
        "Latitude(deg)": 60.11602480513248,
        "Longitude(deg)": -3.357748115161701,
        "Mean Anomaly(deg)": 91.11979218192745,
        "RAAN(deg)": 4.99369926290386,
        "Satellite Name": "Test1 27",
        "Satellite Number": 27,
        "Semi-Major Axis(m)": 6980739.136638005,
        "Time(s)": 150
    },
    {
        "Altitude(m)": 612167.7168952072,
        "Argument of Periapsis(deg)": 0.0016670313461274247,
        "Eccentricity": 0.0,
        "Inclination(deg)": 60.0,
        "Latitude(deg)": 60.0892258476245,
        "Longitude(deg)": -2.1604285594982717,
        "Mean Anomaly(deg)": 91.73989832738928,
        "RAAN(deg)": 4.993279213764118,
        "Satellite Name": "Test1 27",
        "Satellite Number": 27,
        "Semi-Major Axis(m)": 6980739.136638005,
        "Time(s)": 160
    },
    {
        "Altitude(m)": 612159.7143122732,
        "Argument of Periapsis(deg)": 0.0017712208052603888,
        "Eccentricity": 0.0,
        "Inclination(deg)": 60.0,
        "Latitude(deg)": 60.0508575166548,
        "Longitude(deg)": -0.965550099072638,
        "Mean Anomaly(deg)": 92.36000447285112,
        "RAAN(deg)": 4.992859164624375,
        "Satellite Name": "Test1 27",
        "Satellite Number": 27,
        "Semi-Major Axis(m)": 6980739.136638005,
        "Time(s)": 170
    },
    {
        "Altitude(m)": 612149.2773089774,
        "Argument of Periapsis(deg)": 0.001875410264393353,
        "Eccentricity": 0.0,
        "Inclination(deg)": 60.0,
        "Latitude(deg)": 60.000964232666824,
        "Longitude(deg)": 0.2260347990684846,
        "Mean Anomaly(deg)": 92.98011061831295,
        "RAAN(deg)": 4.992439115484632,
        "Satellite Name": "Test1 27",
        "Satellite Number": 27,
        "Semi-Major Axis(m)": 6980739.136638005,
        "Time(s)": 180
    },
    {
        "Altitude(m)": 612136.4119052996,
        "Argument of Periapsis(deg)": 0.0019795997235263173,
        "Eccentricity": 0.0,
        "Inclination(deg)": 60.0,
        "Latitude(deg)": 59.93960342025385,
        "Longitude(deg)": 1.4134893615273927,
        "Mean Anomaly(deg)": 93.60021676377477,
        "RAAN(deg)": 4.992019066344889,
        "Satellite Name": "Test1 27",
        "Satellite Number": 27,
        "Semi-Major Axis(m)": 6980739.136638005,
        "Time(s)": 190
    }
]